*******************************************************************************
Ephemeris / WWW_USER Mon Mar 24 11:45:18 2025 Pasadena, USA      / Horizons    
*******************************************************************************
Target body name: (2017 SN16)                     {source: JPL#20}
Center body name: Earth (399)                     {source: DE441}
Center-site name: Gemini South Obs., Cerro Pachon
*******************************************************************************
Start time      : A.D. 2018-Jul-31 22:18:00.0000 UT      
Stop  time      : A.D. 2018-Aug-01 11:20:00.0000 UT      
Step-size       : 1 minutes
*******************************************************************************
Target pole/equ : undefined
Target radii    : undefined                                                    
Center geodetic : 289.2634, -30.2406227, 2.71233  {E-lon(deg),Lat(deg),Alt(km)}
Center cylindric: 289.2634,5517.21435,-3194.81213 {E-lon(deg),Dxy(km),Dz(km)}
Center pole/equ : ITRF93                          {East-longitude positive}
Center radii    : 6378.137, 6378.137, 6356.752 km {Equator_a, b, pole_c}       
Target primary  : Sun
Vis. interferer : MOON (R_eq= 1737.400) km        {source: DE441}
Rel. light bend : Sun                             {source: DE441}
Rel. lght bnd GM: 1.3271E+11 km^3/s^2                                          
Small-body perts: Yes                             {source: SB441-N16}
Atmos refraction: NO (AIRLESS)
RA format       : HMS
Time format     : CAL 
Calendar mode   : Mixed Julian/Gregorian
RTS-only print  : NO       
EOP file        : eop.250321.p250617                                           
EOP coverage    : DATA-BASED 1962-JAN-20 TO 2025-MAR-21. PREDICTS-> 2025-JUN-16
Units conversion: 1 au= 149597870.700 km, c= 299792.458 km/s, 1 day= 86400.0 s 
Table cut-offs 1: Elevation (-90.0deg=NO ),Airmass (>38.000=NO), Daylight (YES)
Table cut-offs 2: Solar elongation (  0.0,180.0=NO ),Local Hour Angle( 0.0=NO )
Table cut-offs 3: RA/DEC angular rate (     0.0=NO )                           
*******************************************************************************
Initial IAU76/J2000 heliocentric ecliptic osculating elements (au, days, deg.):
  EPOCH=  2458305.5 ! 2018-Jul-06.00 (TDB)         Residual RMS= .23751        
   EC= .1454884975659386   QR= .8682464985612274   TP= 2458145.5722438502      
   OM= 2.759719470837934   W=  137.1017088998531   IN= 13.38264682844635       
  Equivalent ICRF heliocentric cartesian coordinates (au, au/d):
   X= 5.756755401261899E-01  Y=-7.953424559592890E-01  Z=-6.031561894536019E-01
  VX= 1.332076113263395E-02 VY= 5.454663564585547E-03 VZ= 3.896229736425836E-03
Asteroid physical parameters (km, seconds, rotational period in hours):        
   GM= n.a.                RAD= n.a.               ROTPER= n.a.                
   H= 23.34                G= .150                 B-V= n.a.                   
                           ALBEDO= n.a.            STYP= n.a.                  
*******************************************************************************
 Date__(UT)__HR:MN     R.A._________(ICRF)_________DEC
******************************************************
$$SOE
 2018-Aug-01 06:30  m  01 46 29.350108 -28 26 41.99942
 2018-Aug-01 06:31  m  01 46 29.373432 -28 26 41.85953
 2018-Aug-01 06:32  m  01 46 29.396727 -28 26 41.71951
 2018-Aug-01 06:33  m  01 46 29.419994 -28 26 41.57934
 2018-Aug-01 06:34  m  01 46 29.443231 -28 26 41.43904
 2018-Aug-01 06:35  m  01 46 29.466441 -28 26 41.29859
 2018-Aug-01 06:36  m  01 46 29.489622 -28 26 41.15800
 2018-Aug-01 06:37  m  01 46 29.512775 -28 26 41.01726
 2018-Aug-01 06:38  m  01 46 29.535899 -28 26 40.87638
 2018-Aug-01 06:39  m  01 46 29.558996 -28 26 40.73536
 2018-Aug-01 06:40  m  01 46 29.582064 -28 26 40.59419
 2018-Aug-01 06:41  m  01 46 29.605105 -28 26 40.45287
 2018-Aug-01 06:42  m  01 46 29.628118 -28 26 40.31141
 2018-Aug-01 06:43  m  01 46 29.651103 -28 26 40.16979
 2018-Aug-01 06:44  m  01 46 29.674060 -28 26 40.02803
 2018-Aug-01 06:45  m  01 46 29.696991 -28 26 39.88613
 2018-Aug-01 06:46  m  01 46 29.719893 -28 26 39.74407
 2018-Aug-01 06:47  m  01 46 29.742769 -28 26 39.60186
 2018-Aug-01 06:48  m  01 46 29.765617 -28 26 39.45949
 2018-Aug-01 06:49  m  01 46 29.788439 -28 26 39.31698
 2018-Aug-01 06:50  m  01 46 29.811233 -28 26 39.17432
 2018-Aug-01 06:51  m  01 46 29.834001 -28 26 39.03150
 2018-Aug-01 06:52  m  01 46 29.856742 -28 26 38.88852
 2018-Aug-01 06:53  m  01 46 29.879456 -28 26 38.74539
 2018-Aug-01 06:54  m  01 46 29.902144 -28 26 38.60211
 2018-Aug-01 06:55  m  01 46 29.924805 -28 26 38.45867
 2018-Aug-01 06:56  m  01 46 29.947441 -28 26 38.31507
 2018-Aug-01 06:57  m  01 46 29.970050 -28 26 38.17132
 2018-Aug-01 06:58  m  01 46 29.992633 -28 26 38.02740
 2018-Aug-01 06:59  m  01 46 30.015190 -28 26 37.88333
 2018-Aug-01 07:00  m  01 46 30.037721 -28 26 37.73910
 2018-Aug-01 07:01  m  01 46 30.060226 -28 26 37.59471
 2018-Aug-01 07:02  m  01 46 30.082706 -28 26 37.45015
 2018-Aug-01 07:03  m  01 46 30.105161 -28 26 37.30544
 2018-Aug-01 07:04  m  01 46 30.127590 -28 26 37.16056
 2018-Aug-01 07:05  m  01 46 30.149994 -28 26 37.01552
 2018-Aug-01 07:06  m  01 46 30.172372 -28 26 36.87032
 2018-Aug-01 07:07  m  01 46 30.194726 -28 26 36.72495
 2018-Aug-01 07:08  m  01 46 30.217054 -28 26 36.57942
 2018-Aug-01 07:09  m  01 46 30.239358 -28 26 36.43372
 2018-Aug-01 07:10  m  01 46 30.261638 -28 26 36.28786
 2018-Aug-01 07:11  m  01 46 30.283892 -28 26 36.14183
 2018-Aug-01 07:12  m  01 46 30.306122 -28 26 35.99563
 2018-Aug-01 07:13  m  01 46 30.328328 -28 26 35.84926
 2018-Aug-01 07:14  m  01 46 30.350510 -28 26 35.70273
 2018-Aug-01 07:15  m  01 46 30.372667 -28 26 35.55603
 2018-Aug-01 07:16  m  01 46 30.394801 -28 26 35.40915
 2018-Aug-01 07:17  m  01 46 30.416911 -28 26 35.26211
 2018-Aug-01 07:18  m  01 46 30.438997 -28 26 35.11490
 2018-Aug-01 07:19  m  01 46 30.461059 -28 26 34.96751
 2018-Aug-01 07:20  m  01 46 30.483098 -28 26 34.81995
 2018-Aug-01 07:21  m  01 46 30.505113 -28 26 34.67222
 2018-Aug-01 07:22  m  01 46 30.527106 -28 26 34.52431
 2018-Aug-01 07:23  m  01 46 30.549075 -28 26 34.37623
 2018-Aug-01 07:24  m  01 46 30.571021 -28 26 34.22798
 2018-Aug-01 07:25  m  01 46 30.592944 -28 26 34.07955
 2018-Aug-01 07:26  m  01 46 30.614845 -28 26 33.93095
 2018-Aug-01 07:27  m  01 46 30.636723 -28 26 33.78217
 2018-Aug-01 07:28  m  01 46 30.658578 -28 26 33.63321
 2018-Aug-01 07:29  m  01 46 30.680411 -28 26 33.48407
 2018-Aug-01 07:30  m  01 46 30.702222 -28 26 33.33476
 2018-Aug-01 07:31  m  01 46 30.724010 -28 26 33.18527
 2018-Aug-01 07:32  m  01 46 30.745777 -28 26 33.03559
 2018-Aug-01 07:33  m  01 46 30.767522 -28 26 32.88574
 2018-Aug-01 07:34  m  01 46 30.789244 -28 26 32.73571
 2018-Aug-01 07:35  m  01 46 30.810946 -28 26 32.58550
 2018-Aug-01 07:36  m  01 46 30.832626 -28 26 32.43510
 2018-Aug-01 07:37  m  01 46 30.854284 -28 26 32.28453
 2018-Aug-01 07:38  m  01 46 30.875921 -28 26 32.13377
 2018-Aug-01 07:39  m  01 46 30.897537 -28 26 31.98283
 2018-Aug-01 07:40  m  01 46 30.919132 -28 26 31.83170
 2018-Aug-01 07:41  m  01 46 30.940707 -28 26 31.68039
 2018-Aug-01 07:42  m  01 46 30.962260 -28 26 31.52890
 2018-Aug-01 07:43  m  01 46 30.983793 -28 26 31.37722
 2018-Aug-01 07:44  m  01 46 31.005305 -28 26 31.22535
 2018-Aug-01 07:45  m  01 46 31.026797 -28 26 31.07330
 2018-Aug-01 07:46  m  01 46 31.048269 -28 26 30.92106
 2018-Aug-01 07:47  m  01 46 31.069721 -28 26 30.76864
 2018-Aug-01 07:48  m  01 46 31.091153 -28 26 30.61603
 2018-Aug-01 07:49  m  01 46 31.112565 -28 26 30.46322
 2018-Aug-01 07:50  m  01 46 31.133957 -28 26 30.31023
 2018-Aug-01 07:51  m  01 46 31.155330 -28 26 30.15706
 2018-Aug-01 07:52  m  01 46 31.176683 -28 26 30.00369
 2018-Aug-01 07:53  m  01 46 31.198018 -28 26 29.85013
 2018-Aug-01 07:54  m  01 46 31.219333 -28 26 29.69638
 2018-Aug-01 07:55  m  01 46 31.240629 -28 26 29.54244
 2018-Aug-01 07:56  m  01 46 31.261906 -28 26 29.38830
 2018-Aug-01 07:57  m  01 46 31.283164 -28 26 29.23398
 2018-Aug-01 07:58  m  01 46 31.304404 -28 26 29.07946
 2018-Aug-01 07:59  m  01 46 31.325625 -28 26 28.92475
 2018-Aug-01 08:00  m  01 46 31.346828 -28 26 28.76984
 2018-Aug-01 08:01  m  01 46 31.368013 -28 26 28.61475
 2018-Aug-01 08:02  m  01 46 31.389179 -28 26 28.45945
 2018-Aug-01 08:03  m  01 46 31.410328 -28 26 28.30397
 2018-Aug-01 08:04  m  01 46 31.431459 -28 26 28.14828
 2018-Aug-01 08:05  m  01 46 31.452572 -28 26 27.99240
 2018-Aug-01 08:06  m  01 46 31.473668 -28 26 27.83633
 2018-Aug-01 08:07  m  01 46 31.494746 -28 26 27.68006
 2018-Aug-01 08:08  m  01 46 31.515807 -28 26 27.52359
 2018-Aug-01 08:09  m  01 46 31.536852 -28 26 27.36692
 2018-Aug-01 08:10  m  01 46 31.557879 -28 26 27.21006
 2018-Aug-01 08:11  m  01 46 31.578889 -28 26 27.05300
 2018-Aug-01 08:12  m  01 46 31.599883 -28 26 26.89573
 2018-Aug-01 08:13  m  01 46 31.620860 -28 26 26.73827
 2018-Aug-01 08:14  m  01 46 31.641820 -28 26 26.58061
 2018-Aug-01 08:15  m  01 46 31.662765 -28 26 26.42275
 2018-Aug-01 08:16  m  01 46 31.683693 -28 26 26.26469
 2018-Aug-01 08:17  m  01 46 31.704605 -28 26 26.10643
 2018-Aug-01 08:18  m  01 46 31.725502 -28 26 25.94797
 2018-Aug-01 08:19  m  01 46 31.746382 -28 26 25.78930
 2018-Aug-01 08:20  m  01 46 31.767248 -28 26 25.63044
 2018-Aug-01 08:21  m  01 46 31.788097 -28 26 25.47137
 2018-Aug-01 08:22  m  01 46 31.808932 -28 26 25.31210
 2018-Aug-01 08:23  m  01 46 31.829751 -28 26 25.15262
 2018-Aug-01 08:24  m  01 46 31.850556 -28 26 24.99294
 2018-Aug-01 08:25  m  01 46 31.871345 -28 26 24.83306
 2018-Aug-01 08:26  m  01 46 31.892120 -28 26 24.67298
 2018-Aug-01 08:27  m  01 46 31.912880 -28 26 24.51268
 2018-Aug-01 08:28  m  01 46 31.933626 -28 26 24.35219
 2018-Aug-01 08:29  m  01 46 31.954358 -28 26 24.19149
 2018-Aug-01 08:30  m  01 46 31.975075 -28 26 24.03058
 2018-Aug-01 08:31  m  01 46 31.995779 -28 26 23.86947
 2018-Aug-01 08:32  m  01 46 32.016469 -28 26 23.70815
